STARLINK-5341           
1 55287U 23010U   26144.10975221  .00000557  00000+0  54500-4 0  9991
2 55287  69.9986 174.4411 0003949 265.0579  95.0129 14.98328835185053
STARLINK-5311           
1 55288U 23010V   26144.22277762  .00000042  00000+0  11328-4 0  9990
2 55288  69.9985 193.9931 0003670 267.1469  92.9270 14.98330657184583
STARLINK-5320           
1 55289U 23010W   26144.10578885  .00000194  00000+0  24053-4 0  9995
2 55289  69.9991 194.3891 0003592 267.5699  92.5049 14.98331220184568
STARLINK-5266           
1 55290U 23010X   26143.56335985  .00000294  00000+0  32417-4 0  9992
2 55290  69.9990 195.7057 0003659 268.1461  91.9279 14.98331122184486
STARLINK-5327           
1 55291U 23010Y   26143.84708788  .00000879  00000+0  81440-4 0  9998
2 55291  69.9995 195.0900 0003734 271.5841  88.4890 14.98340441184525
STARLINK-5325           
1 55292U 23010Z   26144.15167978  .00000501  00000+0  49829-4 0  9991
2 55292  69.9989 194.1463 0003745 270.7967  89.2763 14.98319593184572
STARLINK-5287           
1 55293U 23010AA  26144.22261308  .00000172  00000+0  22218-4 0  9999
2 55293  69.9984 193.9935 0003673 268.0222  92.0517 14.98331290184581
STARLINK-5286           
1 55294U 23010AB  26144.16024882 -.00000026  00000+0  55800-5 0  9990
2 55294  69.9992 214.0419 0003487 268.7170  91.3590 14.98332254184084
STARLINK-5293           
1 55295U 23010AC  26144.06847073  .00000213  00000+0  25655-4 0  9996
2 55295  69.9992 214.5279 0003874 268.9134  91.1581 14.98330919184079
STARLINK-5285           
1 55296U 23010AD  26144.13916084  .00000336  00000+0  35923-4 0  9999
2 55296  69.9988 194.1019 0003628 266.3760  93.6984 14.98325363185458
STARLINK-5284           
1 55297U 23010AE  26144.14750282  .00000278  00000+0  31132-4 0  9990
2 55297  69.9988 194.1319 0003717 267.8515  92.2219 14.98331593184575
STARLINK-5270           
1 55299U 23010AG  26144.13498191  .00000056  00000+0  12455-4 0  9990
2 55299  69.9990 194.0897 0003611 268.4015  91.6731 14.98329570185457
STARLINK-5308           
1 55300U 23010AH  26143.86349369  .00000323  00000+0  34825-4 0  9996
2 55300  70.0013 194.7492 0003862 267.2238  92.8479 14.98405209184533
STARLINK-5321           
1 55302U 23010AK  26144.14333088  .00000158  00000+0  21078-4 0  9993
2 55302  69.9990 194.1144 0003383 268.6297  91.4475 14.98329982184570
STARLINK-5322           
1 55303U 23010AL  26144.14774198  .00000651  00000+0  62397-4 0  9992
2 55303  69.9996 213.9988 0003334 267.6590  92.4188 14.98322500184081
STARLINK-5318           
1 55304U 23010AM  26143.85959427 -.00000224  00000+0 -10982-4 0  9991
2 55304  69.9994 194.7317 0003683 267.6848  92.3889 14.98329261184533
STARLINK-5316           
1 55305U 23010AN  26143.85542779  .00001353  00000+0  12109-3 0  9994
2 55305  69.9987 195.1218 0004567 269.6607  90.4029 14.98348959184538
STARLINK-5295           
1 55306U 23010AP  26144.09304388 -.00000215  00000+0 -10180-4 0  9990
2 55306  69.9984 174.4704 0003352 269.5924  90.4851 14.98333301185065
STARLINK-5288           
1 55307U 23010AQ  26144.09723566  .00000444  00000+0  45036-4 0  9994
2 55307  69.9984 174.4856 0003863 265.3703  94.7015 14.98329931185063
STARLINK-5315           
1 55309U 23010AS  26144.11388647 -.00000032  00000+0  50817-5 0  9994
2 55309  69.9986 174.1429 0003573 268.1817  91.8932 14.98330486185079
STARLINK-5309           
1 55310U 23010AT  26144.15145387  .00000120  00000+0  17888-4 0  9999
2 55310  69.9986 174.2720 0003677 267.9207  92.1531 14.98330538185078
STARLINK-5312           
1 55311U 23010AU  26144.15564374  .00000313  00000+0  34045-4 0  9999
2 55311  69.9984 174.2865 0003767 269.0432  91.0295 14.98335348185945
STARLINK-5296           
1 55312U 23010AV  26144.12640530  .00000282  00000+0  31467-4 0  9996
2 55312  69.9987 174.0724 0003643 267.7340  92.3401 14.98328286185932
STARLINK-5313           
1 55313U 23010AW  26144.14310603 -.00000002  00000+0  76045-5 0  9997
2 55313  69.9987 174.2431 0003678 267.5296  92.5442 14.98330997185946
STARLINK-5305           
1 55314U 23010AX  26144.14728795  .00000363  00000+0  38259-4 0  9996
2 55314  69.9985 174.2552 0003335 269.3189  90.7588 14.98321699185940
STARLINK-4623           
1 55315U 23010AY  26143.55918374  .00000334  00000+0  35816-4 0  9999
2 55315  69.9990 195.6909 0004021 268.4604  91.6094 14.98332466184478
STARLINK-5257           
1 55316U 23010AZ  26144.11807171  .00000968  00000+0  88929-4 0  9991
2 55316  69.9985 174.1712 0003903 273.8227  86.2485 14.98314596185947
STARLINK-5265           
1 55317U 23010BA  26144.13893362 -.00000051  00000+0  35161-5 0  9996
2 55317  69.9990 174.2559 0003825 267.0744  92.9977 14.98329866185942
STARLINK-5180           
1 55318U 23010BB  26144.13476137  .00000324  00000+0  34974-4 0  9996
2 55318  69.9987 174.2135 0003379 269.1686  90.9086 14.98328220185943
STARLINK-5196           
1 55319U 23010BC  26144.13058302  .00000085  00000+0  14919-4 0  9998
2 55319  69.9987 174.1997 0003626 268.1689  91.9055 14.98331234185942
