OBJECT_NAME,OBJECT_ID,EPOCH,MEAN_MOTION,ECCENTRICITY,INCLINATION,RA_OF_ASC_NODE,ARG_OF_PERICENTER,MEAN_ANOMALY,EPHEMERIS_TYPE,CLASSIFICATION_TYPE,NORAD_CAT_ID,ELEMENT_SET_NO,REV_AT_EPOCH,BSTAR,MEAN_MOTION_DOT,MEAN_MOTION_DDOT
STARLINK-5341,2023-010U,2026-05-24T02:38:02.590944,14.98328835,.0003949,69.9986,174.4411,265.0579,95.0129,0,U,55287,999,18505,.545E-4,.557E-5,0
STARLINK-5311,2023-010V,2026-05-24T05:20:47.986368,14.98330657,.000367,69.9985,193.9931,267.1469,92.9270,0,U,55288,999,18458,.11328E-4,.42E-6,0
STARLINK-5320,2023-010W,2026-05-24T02:32:20.156640,14.98331220,.0003592,69.9991,194.3891,267.5699,92.5049,0,U,55289,999,18456,.24053E-4,.194E-5,0
STARLINK-5266,2023-010X,2026-05-23T13:31:14.291040,14.98331122,.0003659,69.9990,195.7057,268.1461,91.9279,0,U,55290,999,18448,.32417E-4,.294E-5,0
STARLINK-5327,2023-010Y,2026-05-23T20:19:48.392832,14.98340441,.0003734,69.9995,195.0900,271.5841,88.4890,0,U,55291,999,18452,.8144E-4,.879E-5,0
STARLINK-5325,2023-010Z,2026-05-24T03:38:25.132992,14.98319593,.0003745,69.9989,194.1463,270.7967,89.2763,0,U,55292,999,18457,.49829E-4,.501E-5,0
STARLINK-5287,2023-010AA,2026-05-24T05:20:33.770112,14.98331290,.0003673,69.9984,193.9935,268.0222,92.0517,0,U,55293,999,18458,.22218E-4,.172E-5,0
STARLINK-5286,2023-010AB,2026-05-24T03:50:45.498048,14.98332254,.0003487,69.9992,214.0419,268.7170,91.3590,0,U,55294,999,18408,.558E-5,-.26E-6,0
STARLINK-5293,2023-010AC,2026-05-24T01:38:35.871072,14.98330919,.0003874,69.9992,214.5279,268.9134,91.1581,0,U,55295,999,18407,.25655E-4,.213E-5,0
STARLINK-5285,2023-010AD,2026-05-24T03:20:23.496576,14.98325363,.0003628,69.9988,194.1019,266.3760,93.6984,0,U,55296,999,18545,.35923E-4,.336E-5,0
STARLINK-5284,2023-010AE,2026-05-24T03:32:24.243648,14.98331593,.0003717,69.9988,194.1319,267.8515,92.2219,0,U,55297,999,18457,.31132E-4,.278E-5,0
STARLINK-5270,2023-010AG,2026-05-24T03:14:22.437024,14.98329570,.0003611,69.9990,194.0897,268.4015,91.6731,0,U,55299,999,18545,.12455E-4,.56E-6,0
STARLINK-5308,2023-010AH,2026-05-23T20:43:25.854816,14.98405209,.0003862,70.0013,194.7492,267.2238,92.8479,0,U,55300,999,18453,.34825E-4,.323E-5,0
STARLINK-5321,2023-010AK,2026-05-24T03:26:23.788032,14.98329982,.0003383,69.9990,194.1144,268.6297,91.4475,0,U,55302,999,18457,.21078E-4,.158E-5,0
STARLINK-5322,2023-010AL,2026-05-24T03:32:44.907072,14.98322500,.0003334,69.9996,213.9988,267.6590,92.4188,0,U,55303,999,18408,.62397E-4,.651E-5,0
STARLINK-5318,2023-010AM,2026-05-23T20:37:48.944928,14.98329261,.0003683,69.9994,194.7317,267.6848,92.3889,0,U,55304,999,18453,-.10982E-4,-.224E-5,0
STARLINK-5316,2023-010AN,2026-05-23T20:31:48.961056,14.98348959,.0004567,69.9987,195.1218,269.6607,90.4029,0,U,55305,999,18453,.12109E-3,.1353E-4,0
STARLINK-5295,2023-010AP,2026-05-24T02:13:58.991232,14.98333301,.0003352,69.9984,174.4704,269.5924,90.4851,0,U,55306,999,18506,-.1018E-4,-.215E-5,0
STARLINK-5288,2023-010AQ,2026-05-24T02:20:01.161024,14.98329931,.0003863,69.9984,174.4856,265.3703,94.7015,0,U,55307,999,18506,.45036E-4,.444E-5,0
STARLINK-5315,2023-010AS,2026-05-24T02:43:59.791008,14.98330486,.0003573,69.9986,174.1429,268.1817,91.8932,0,U,55309,999,18507,.50817E-5,-.32E-6,0
STARLINK-5309,2023-010AT,2026-05-24T03:38:05.614368,14.98330538,.0003677,69.9986,174.2720,267.9207,92.1531,0,U,55310,999,18507,.17888E-4,.12E-5,0
STARLINK-5312,2023-010AU,2026-05-24T03:44:07.619136,14.98335348,.0003767,69.9984,174.2865,269.0432,91.0295,0,U,55311,999,18594,.34045E-4,.313E-5,0
STARLINK-5296,2023-010AV,2026-05-24T03:02:01.417920,14.98328286,.0003643,69.9987,174.0724,267.7340,92.3401,0,U,55312,999,18593,.31467E-4,.282E-5,0
STARLINK-5313,2023-010AW,2026-05-24T03:26:04.360992,14.98330997,.0003678,69.9987,174.2431,267.5296,92.5442,0,U,55313,999,18594,.76045E-5,-.2E-7,0
STARLINK-5305,2023-010AX,2026-05-24T03:32:05.678880,14.98321699,.0003335,69.9985,174.2552,269.3189,90.7588,0,U,55314,999,18594,.38259E-4,.363E-5,0
STARLINK-4623,2023-010AY,2026-05-23T13:25:13.475136,14.98332466,.0004021,69.9990,195.6909,268.4604,91.6094,0,U,55315,999,18447,.35816E-4,.334E-5,0
STARLINK-5257,2023-010AZ,2026-05-24T02:50:01.395744,14.98314596,.0003903,69.9985,174.1712,273.8227,86.2485,0,U,55316,999,18594,.88929E-4,.968E-5,0
STARLINK-5265,2023-010BA,2026-05-24T03:20:03.864768,14.98329866,.0003825,69.9990,174.2559,267.0744,92.9977,0,U,55317,999,18594,.35161E-5,-.51E-6,0
STARLINK-5180,2023-010BB,2026-05-24T03:14:03.382368,14.98328220,.0003379,69.9987,174.2135,269.1686,90.9086,0,U,55318,999,18594,.34974E-4,.324E-5,0
STARLINK-5196,2023-010BC,2026-05-24T03:08:02.372928,14.98331234,.0003626,69.9987,174.1997,268.1689,91.9055,0,U,55319,999,18594,.14919E-4,.85E-6,0
